STARLINK-37376          
1 69378U 26123AB  26161.50002315 -.01819187  10181-2 -30637-2 0  9990
2 69378  53.1564 275.1394 0000599  81.3454 170.8850 16.02224121  2213
STARLINK-37383          
1 69379U 26123AC  26161.50002315 -.01864576  10784-2 -29679-2 0  9996
2 69379  53.1559 275.1000 0000709  53.6998 217.3439 16.03181321  2215
STARLINK-37411          
1 69380U 26123AD  26161.50002315 -.01880980  10860-2 -31394-2 0  9997
2 69380  53.1564 275.1264 0000903  53.9388 204.3497 16.02383200  2216
STARLINK-37427          
1 69381U 26123AE  26161.50002315 -.01811219  10176-2 -29334-2 0  9998
2 69381  53.1563 275.1108 0000793  55.0932 210.7572 16.02883146  2127
DTC TEST OBJECT A       
1 69472U 26128A   26161.48633030  .00023794  00000+0  34522-3 0  9993
2 69472  54.9940 335.9813 0008109 259.3786 100.6337 15.55739576   183
DTC TEST OBJECT B       
1 69473U 26128B   26160.58682037  .00017012  00000+0  24813-3 0  9993
2 69473  55.0026 340.1350 0008153 260.4303  99.5812 15.55833698    30
